CALSPHERE 1             
1 00900U 64063C   26065.95954047  .00000748  00000+0  75363-3 0  9995
2 00900  90.2158  69.3881 0023594 239.6643 153.0142 13.76493491 57361
CALSPHERE 2             
1 00902U 64063E   26065.96717647  .00000023  00000+0  21931-4 0  9990
2 00902  90.2281  73.3716 0019227 158.4908 264.0395 13.52891515842449
LCS 1                   
1 01361U 65034C   26066.08320294  .00000003  00000+0 -71080-3 0  9999
2 01361  32.1430  59.4484 0013178 120.6681 239.5116  9.89309947199772
TEMPSAT 1               
1 01512U 65065E   26065.63678874  .00000039  00000+0  58813-4 0  9999
2 01512  89.9931 212.5878 0069950 175.2042 197.0926 13.33588981946386
CALSPHERE 4A            
1 01520U 65065H   26066.16281294  .00000113  00000+0  19867-3 0  9991
2 01520  89.9037 123.4950 0070463  33.2771  21.1930 13.36258693949085
OPS 5712 (P/L 160)      
1 02826U 67053A   26066.12328932  .00008715  00000+0  12694-2 0  9993
2 02826  69.9166 288.1659 0004357 225.9006 134.1783 14.76127660 51169
OPS 5712 (P/L 153)      
1 02874U 67053H   26066.15119154  .00000069  00000+0  88053-4 0  9991
2 02874  69.9764 334.0114 0009093 312.6256  47.4083 13.96811181992539
RIGIDSPHERE 2 (LCS 4)   
1 05398U 71067E   26066.09607409  .00000920  00000+0  29408-3 0  9997
2 05398  87.6272   7.1287 0058541 209.8198 149.9662 14.37737028859218
COSMOS 2493 (SKRL-756 1)
1 39490U 13078A   26066.14890714  .00004998  00000+0  38351-3 0  9990
2 39490  82.4164   0.9726 0011545 224.6188 135.4108 15.01552473662642
COSMOS 2494 (SKRL-756 2)
1 39491U 13078B   26066.12803480  .00005740  00000+0  41056-3 0  9995
2 39491  82.4159 350.8066 0015660 185.6519 174.4533 15.04179837663465
