[{"OBJECT_NAME":"CALSPHERE 1","OBJECT_ID":"1964-063C","EPOCH":"2026-03-06T23:01:44.296608","MEAN_MOTION":13.76493491,"ECCENTRICITY":0.0023594,"INCLINATION":90.2158,"RA_OF_ASC_NODE":69.3881,"ARG_OF_PERICENTER":239.6643,"MEAN_ANOMALY":153.0142,"EPHEMERIS_TYPE":0,"CLASSIFICATION_TYPE":"U","NORAD_CAT_ID":900,"ELEMENT_SET_NO":999,"REV_AT_EPOCH":5736,"BSTAR":0.00075363,"MEAN_MOTION_DOT":7.48e-6,"MEAN_MOTION_DDOT":0},{"OBJECT_NAME":"CALSPHERE 2","OBJECT_ID":"1964-063E","EPOCH":"2026-03-06T23:12:44.047008","MEAN_MOTION":13.52891515,"ECCENTRICITY":0.0019227,"INCLINATION":90.2281,"RA_OF_ASC_NODE":73.3716,"ARG_OF_PERICENTER":158.4908,"MEAN_ANOMALY":264.0395,"EPHEMERIS_TYPE":0,"CLASSIFICATION_TYPE":"U","NORAD_CAT_ID":902,"ELEMENT_SET_NO":999,"REV_AT_EPOCH":84244,"BSTAR":2.1931e-5,"MEAN_MOTION_DOT":2.3e-7,"MEAN_MOTION_DDOT":0},{"OBJECT_NAME":"LCS 1","OBJECT_ID":"1965-034C","EPOCH":"2026-03-07T01:59:48.734016","MEAN_MOTION":9.89309947,"ECCENTRICITY":0.0013178,"INCLINATION":32.143,"RA_OF_ASC_NODE":59.4484,"ARG_OF_PERICENTER":120.6681,"MEAN_ANOMALY":239.5116,"EPHEMERIS_TYPE":0,"CLASSIFICATION_TYPE":"U","NORAD_CAT_ID":1361,"ELEMENT_SET_NO":999,"REV_AT_EPOCH":19977,"BSTAR":-0.0007108,"MEAN_MOTION_DOT":3.0e-8,"MEAN_MOTION_DDOT":0},{"OBJECT_NAME":"TEMPSAT 1","OBJECT_ID":"1965-065E","EPOCH":"2026-03-06T15:16:58.547136","MEAN_MOTION":13.33588981,"ECCENTRICITY":0.00699508,"INCLINATION":89.9931,"RA_OF_ASC_NODE":212.5878,"ARG_OF_PERICENTER":175.2042,"MEAN_ANOMALY":197.0926,"EPHEMERIS_TYPE":0,"CLASSIFICATION_TYPE":"U","NORAD_CAT_ID":1512,"ELEMENT_SET_NO":999,"REV_AT_EPOCH":94638,"BSTAR":5.8813205e-5,"MEAN_MOTION_DOT":3.9e-7,"MEAN_MOTION_DDOT":0},{"OBJECT_NAME":"CALSPHERE 4A","OBJECT_ID":"1965-065H","EPOCH":"2026-03-07T03:54:27.038016","MEAN_MOTION":13.36258693,"ECCENTRICITY":0.0070463,"INCLINATION":89.9037,"RA_OF_ASC_NODE":123.495,"ARG_OF_PERICENTER":33.2771,"MEAN_ANOMALY":21.193,"EPHEMERIS_TYPE":0,"CLASSIFICATION_TYPE":"U","NORAD_CAT_ID":1520,"ELEMENT_SET_NO":999,"REV_AT_EPOCH":94908,"BSTAR":0.00019867,"MEAN_MOTION_DOT":1.13e-6,"MEAN_MOTION_DDOT":0},{"OBJECT_NAME":"OPS 5712 (P/L 160)","OBJECT_ID":"1967-053A","EPOCH":"2026-03-07T02:57:32.197248","MEAN_MOTION":14.7612766,"ECCENTRICITY":0.0004357,"INCLINATION":69.9166,"RA_OF_ASC_NODE":288.1659,"ARG_OF_PERICENTER":225.9006,"MEAN_ANOMALY":134.1783,"EPHEMERIS_TYPE":0,"CLASSIFICATION_TYPE":"U","NORAD_CAT_ID":2826,"ELEMENT_SET_NO":999,"REV_AT_EPOCH":5116,"BSTAR":0.0012694,"MEAN_MOTION_DOT":8.715e-5,"MEAN_MOTION_DDOT":0},{"OBJECT_NAME":"OPS 5712 (P/L 153)","OBJECT_ID":"1967-053H","EPOCH":"2026-03-07T03:37:42.949056","MEAN_MOTION":13.96811181,"ECCENTRICITY":0.0009093,"INCLINATION":69.9764,"RA_OF_ASC_NODE":334.0114,"ARG_OF_PERICENTER":312.6256,"MEAN_ANOMALY":47.4083,"EPHEMERIS_TYPE":0,"CLASSIFICATION_TYPE":"U","NORAD_CAT_ID":2874,"ELEMENT_SET_NO":999,"REV_AT_EPOCH":99253,"BSTAR":8.8053e-5,"MEAN_MOTION_DOT":6.9e-7,"MEAN_MOTION_DDOT":0},{"OBJECT_NAME":"RIGIDSPHERE 2 (LCS 4)","OBJECT_ID":"1971-067E","EPOCH":"2026-03-07T02:18:20.801376","MEAN_MOTION":14.37737028,"ECCENTRICITY":0.0058541,"INCLINATION":87.6272,"RA_OF_ASC_NODE":7.1287,"ARG_OF_PERICENTER":209.8198,"MEAN_ANOMALY":149.9662,"EPHEMERIS_TYPE":0,"CLASSIFICATION_TYPE":"U","NORAD_CAT_ID":5398,"ELEMENT_SET_NO":999,"REV_AT_EPOCH":85921,"BSTAR":0.00029408,"MEAN_MOTION_DOT":9.2e-6,"MEAN_MOTION_DDOT":0},{"OBJECT_NAME":"COSMOS 2493 (SKRL-756 1)","OBJECT_ID":"2013-078A","EPOCH":"2026-03-07T03:34:25.576896","MEAN_MOTION":15.01552473,"ECCENTRICITY":0.0011545,"INCLINATION":82.4164,"RA_OF_ASC_NODE":0.9726,"ARG_OF_PERICENTER":224.6188,"MEAN_ANOMALY":135.4108,"EPHEMERIS_TYPE":0,"CLASSIFICATION_TYPE":"U","NORAD_CAT_ID":39490,"ELEMENT_SET_NO":999,"REV_AT_EPOCH":66264,"BSTAR":0.00038351,"MEAN_MOTION_DOT":4.998e-5,"MEAN_MOTION_DDOT":0},{"OBJECT_NAME":"COSMOS 2494 (SKRL-756 2)","OBJECT_ID":"2013-078B","EPOCH":"2026-03-07T03:04:22.206720","MEAN_MOTION":15.04179837,"ECCENTRICITY":0.001566,"INCLINATION":82.4159,"RA_OF_ASC_NODE":350.8066,"ARG_OF_PERICENTER":185.6519,"MEAN_ANOMALY":174.4533,"EPHEMERIS_TYPE":0,"CLASSIFICATION_TYPE":"U","NORAD_CAT_ID":39491,"ELEMENT_SET_NO":999,"REV_AT_EPOCH":66346,"BSTAR":0.00041056,"MEAN_MOTION_DOT":5.74e-5,"MEAN_MOTION_DDOT":0}]
